0 CZ-4 DEB
1 20886U 90081AW  13284.21146742  .00000178  00000-0  26310-3 0  4421
2 20886 099.0657 037.8044 0248985 092.4188 339.6130 13.53459691135602
0 CZ-4 DEB
1 20886U 90081AW  13286.27765094  .00000166  00000-0  24888-3 0  4432
2 20886 099.0661 039.6986 0248932 087.1635 326.9856 13.53460558135880
0 CZ-4 DEB
1 20886U 90081AW  13288.80588090  .00000231  00000-0  32844-3 0  4447
2 20886 099.0667 042.0166 0248868 080.7304 045.6680 13.53461911136227
0 CZ-4 DEB
1 20886U 90081AW  13291.16944741  .00000239  00000-0  33801-3 0  4452
2 20886 099.0667 044.1839 0248733 074.7032 042.0613 13.53463220136546
0 CZ-4 DEB
1 20886U 90081AW  13293.30054580  .00000267  00000-0  37287-3 0  4467
2 20886 099.0665 046.1380 0248667 069.2770 345.7617 13.53464293136831
0 CZ-4 DEB
1 20886U 90081AW  13296.19570844  .00000251  00000-0  35351-3 0  4477
2 20886 099.0665 048.7926 0248566 061.8987 052.3590 13.53466310137228
